[{"OBJECT_NAME":"IRIDIUM 33 DEB","OBJECT_ID":"1997-051QS","EPOCH":"2026-03-05T18:25:05.119968","MEAN_MOTION":14.40556949,"ECCENTRICITY":0.0130692,"INCLINATION":86.3913,"RA_OF_ASC_NODE":182.3886,"ARG_OF_PERICENTER":344.0446,"MEAN_ANOMALY":15.6652,"EPHEMERIS_TYPE":0,"CLASSIFICATION_TYPE":"U","NORAD_CAT_ID":35620,"ELEMENT_SET_NO":999,"REV_AT_EPOCH":61160,"BSTAR":0.0029057,"MEAN_MOTION_DOT":0.00010264,"MEAN_MOTION_DDOT":0},{"OBJECT_NAME":"IRIDIUM 33 DEB","OBJECT_ID":"1997-051QU","EPOCH":"2026-03-05T10:04:21.580608","MEAN_MOTION":15.13779397,"ECCENTRICITY":0.0006546,"INCLINATION":86.1937,"RA_OF_ASC_NODE":222.5105,"ARG_OF_PERICENTER":317.092,"MEAN_ANOMALY":72.9645,"EPHEMERIS_TYPE":0,"CLASSIFICATION_TYPE":"U","NORAD_CAT_ID":35622,"ELEMENT_SET_NO":999,"REV_AT_EPOCH":88607,"BSTAR":0.002842,"MEAN_MOTION_DOT":0.00051597,"MEAN_MOTION_DDOT":0},{"OBJECT_NAME":"IRIDIUM 33 DEB","OBJECT_ID":"1997-051RA","EPOCH":"2026-03-05T12:18:07.115040","MEAN_MOTION":14.69158982,"ECCENTRICITY":0.0014026,"INCLINATION":86.3602,"RA_OF_ASC_NODE":332.1291,"ARG_OF_PERICENTER":50.4154,"MEAN_ANOMALY":309.8297,"EPHEMERIS_TYPE":0,"CLASSIFICATION_TYPE":"U","NORAD_CAT_ID":35628,"ELEMENT_SET_NO":999,"REV_AT_EPOCH":87661,"BSTAR":0.0015761,"MEAN_MOTION_DOT":9.31e-5,"MEAN_MOTION_DDOT":0},{"OBJECT_NAME":"IRIDIUM 33 DEB","OBJECT_ID":"1997-051RD","EPOCH":"2026-03-05T05:38:48.899616","MEAN_MOTION":14.47619055,"ECCENTRICITY":0.0015579,"INCLINATION":86.372,"RA_OF_ASC_NODE":345.4578,"ARG_OF_PERICENTER":199.7119,"MEAN_ANOMALY":312.3923,"EPHEMERIS_TYPE":0,"CLASSIFICATION_TYPE":"U","NORAD_CAT_ID":35631,"ELEMENT_SET_NO":999,"REV_AT_EPOCH":88390,"BSTAR":0.00049775,"MEAN_MOTION_DOT":1.855e-5,"MEAN_MOTION_DDOT":0},{"OBJECT_NAME":"IRIDIUM 33 DEB","OBJECT_ID":"1997-051RJ","EPOCH":"2026-03-03T13:37:30.156096","MEAN_MOTION":14.22211774,"ECCENTRICITY":0.0154844,"INCLINATION":86.1052,"RA_OF_ASC_NODE":345.7068,"ARG_OF_PERICENTER":22.2182,"MEAN_ANOMALY":95.9581,"EPHEMERIS_TYPE":0,"CLASSIFICATION_TYPE":"U","NORAD_CAT_ID":35680,"ELEMENT_SET_NO":999,"REV_AT_EPOCH":61849,"BSTAR":0.0042353,"MEAN_MOTION_DOT":0.00010642,"MEAN_MOTION_DDOT":0},{"OBJECT_NAME":"IRIDIUM 33 DEB","OBJECT_ID":"1997-051RX","EPOCH":"2026-03-05T08:16:53.835456","MEAN_MOTION":14.72342041,"ECCENTRICITY":0.001882,"INCLINATION":86.3251,"RA_OF_ASC_NODE":288.0761,"ARG_OF_PERICENTER":275.6994,"MEAN_ANOMALY":84.2077,"EPHEMERIS_TYPE":0,"CLASSIFICATION_TYPE":"U","NORAD_CAT_ID":35744,"ELEMENT_SET_NO":999,"REV_AT_EPOCH":88546,"BSTAR":0.001176,"MEAN_MOTION_DOT":7.482e-5,"MEAN_MOTION_DDOT":0},{"OBJECT_NAME":"IRIDIUM 33 DEB","OBJECT_ID":"1997-051SF","EPOCH":"2026-03-05T08:58:28.854912","MEAN_MOTION":14.85589234,"ECCENTRICITY":0.0009999,"INCLINATION":86.3327,"RA_OF_ASC_NODE":291.9267,"ARG_OF_PERICENTER":227.1646,"MEAN_ANOMALY":132.8739,"EPHEMERIS_TYPE":0,"CLASSIFICATION_TYPE":"U","NORAD_CAT_ID":35797,"ELEMENT_SET_NO":999,"REV_AT_EPOCH":88566,"BSTAR":0.0017513,"MEAN_MOTION_DOT":0.00015202,"MEAN_MOTION_DDOT":0},{"OBJECT_NAME":"IRIDIUM 33 DEB","OBJECT_ID":"1997-051SQ","EPOCH":"2026-03-04T01:29:10.119552","MEAN_MOTION":14.5840662,"ECCENTRICITY":0.00141506,"INCLINATION":86.3464,"RA_OF_ASC_NODE":344.7915,"ARG_OF_PERICENTER":141.1989,"MEAN_ANOMALY":219.0239,"EPHEMERIS_TYPE":0,"CLASSIFICATION_TYPE":"U","NORAD_CAT_ID":35806,"ELEMENT_SET_NO":999,"REV_AT_EPOCH":87509,"BSTAR":0.0015765271,"MEAN_MOTION_DOT":7.337e-5,"MEAN_MOTION_DDOT":0},{"OBJECT_NAME":"IRIDIUM 33 DEB","OBJECT_ID":"1997-051ST","EPOCH":"2026-03-02T09:52:47.724672","MEAN_MOTION":14.77775546,"ECCENTRICITY":0.00119409,"INCLINATION":86.3258,"RA_OF_ASC_NODE":299.0145,"ARG_OF_PERICENTER":341.4382,"MEAN_ANOMALY":18.64,"EPHEMERIS_TYPE":0,"CLASSIFICATION_TYPE":"U","NORAD_CAT_ID":35809,"ELEMENT_SET_NO":999,"REV_AT_EPOCH":87983,"BSTAR":0.0015133331,"MEAN_MOTION_DOT":0.00010902,"MEAN_MOTION_DDOT":0},{"OBJECT_NAME":"IRIDIUM 33 DEB","OBJECT_ID":"1997-051SW","EPOCH":"2026-03-04T20:27:14.660928","MEAN_MOTION":14.4353446,"ECCENTRICITY":0.00153713,"INCLINATION":86.3778,"RA_OF_ASC_NODE":23.7756,"ARG_OF_PERICENTER":264.9228,"MEAN_ANOMALY":95.0218,"EPHEMERIS_TYPE":0,"CLASSIFICATION_TYPE":"U","NORAD_CAT_ID":35846,"ELEMENT_SET_NO":999,"REV_AT_EPOCH":72513,"BSTAR":0.0009421039,"MEAN_MOTION_DOT":3.211e-5,"MEAN_MOTION_DDOT":0},{"OBJECT_NAME":"IRIDIUM 33 DEB","OBJECT_ID":"1997-051SY","EPOCH":"2026-03-05T00:41:02.530464","MEAN_MOTION":14.81095014,"ECCENTRICITY":0.00052917,"INCLINATION":86.3931,"RA_OF_ASC_NODE":339.058,"ARG_OF_PERICENTER":297.2212,"MEAN_ANOMALY":62.847,"EPHEMERIS_TYPE":0,"CLASSIFICATION_TYPE":"U","NORAD_CAT_ID":35848,"ELEMENT_SET_NO":999,"REV_AT_EPOCH":67907,"BSTAR":0.002045193,"MEAN_MOTION_DOT":0.00015922,"MEAN_MOTION_DDOT":0},{"OBJECT_NAME":"IRIDIUM 33 DEB","OBJECT_ID":"1997-051TA","EPOCH":"2026-03-04T22:56:17.582784","MEAN_MOTION":14.81217971,"ECCENTRICITY":0.00076163,"INCLINATION":86.3508,"RA_OF_ASC_NODE":306.7887,"ARG_OF_PERICENTER":284.6052,"MEAN_ANOMALY":75.4325,"EPHEMERIS_TYPE":0,"CLASSIFICATION_TYPE":"U","NORAD_CAT_ID":35850,"ELEMENT_SET_NO":999,"REV_AT_EPOCH":72573,"BSTAR":0.0017234796,"MEAN_MOTION_DOT":0.0001346,"MEAN_MOTION_DDOT":0},{"OBJECT_NAME":"IRIDIUM 33 DEB","OBJECT_ID":"1997-051TY","EPOCH":"2026-03-05T09:23:00.224448","MEAN_MOTION":14.83500222,"ECCENTRICITY":0.000906,"INCLINATION":86.3429,"RA_OF_ASC_NODE":305.1184,"ARG_OF_PERICENTER":277.5759,"MEAN_ANOMALY":82.4435,"EPHEMERIS_TYPE":0,"CLASSIFICATION_TYPE":"U","NORAD_CAT_ID":35915,"ELEMENT_SET_NO":999,"REV_AT_EPOCH":9310,"BSTAR":0.0017443,"MEAN_MOTION_DOT":0.00014392,"MEAN_MOTION_DDOT":0},{"OBJECT_NAME":"IRIDIUM 33 DEB","OBJECT_ID":"1997-051UB","EPOCH":"2026-03-05T16:08:28.176576","MEAN_MOTION":14.52047672,"ECCENTRICITY":0.0023799,"INCLINATION":86.4032,"RA_OF_ASC_NODE":40.1848,"ARG_OF_PERICENTER":254.3823,"MEAN_ANOMALY":232.6519,"EPHEMERIS_TYPE":0,"CLASSIFICATION_TYPE":"U","NORAD_CAT_ID":35918,"ELEMENT_SET_NO":999,"REV_AT_EPOCH":86410,"BSTAR":0.0015415,"MEAN_MOTION_DOT":6.275e-5,"MEAN_MOTION_DDOT":0},{"OBJECT_NAME":"IRIDIUM 33 DEB","OBJECT_ID":"1997-051UN","EPOCH":"2026-03-04T07:19:03.280512","MEAN_MOTION":15.09298145,"ECCENTRICITY":0.0015419,"INCLINATION":86.3396,"RA_OF_ASC_NODE":273.7871,"ARG_OF_PERICENTER":83.8088,"MEAN_ANOMALY":276.4906,"EPHEMERIS_TYPE":0,"CLASSIFICATION_TYPE":"U","NORAD_CAT_ID":35929,"ELEMENT_SET_NO":999,"REV_AT_EPOCH":89007,"BSTAR":0.0037250994,"MEAN_MOTION_DOT":0.00059943,"MEAN_MOTION_DDOT":0},{"OBJECT_NAME":"IRIDIUM 33 DEB","OBJECT_ID":"1997-051US","EPOCH":"2026-03-03T14:35:48.280416","MEAN_MOTION":14.41648644,"ECCENTRICITY":0.00174758,"INCLINATION":86.3457,"RA_OF_ASC_NODE":0.6862,"ARG_OF_PERICENTER":321.9511,"MEAN_ANOMALY":161.1077,"EPHEMERIS_TYPE":0,"CLASSIFICATION_TYPE":"U","NORAD_CAT_ID":36011,"ELEMENT_SET_NO":999,"REV_AT_EPOCH":65705,"BSTAR":0.00067114358,"MEAN_MOTION_DOT":2.208e-5,"MEAN_MOTION_DDOT":0}]
